{
  "norad_id": 61503,
  "name": "HULIANWAN GAOGUI-03 (HG-03)",
  "history": [
    {
      "epoch": "2026-03-27T00:46:08.810688Z",
      "apogee_km": 35789.65963497029,
      "perigee_km": 35785.340187125126,
      "latitude_deg": -0.003363980863330635,
      "longitude_deg": -77.10839019734287,
      "height_km": 35785.01228229657,
      "semi_major_axis_km": 42165.63691104771,
      "eccentricity": 5.122e-05,
      "inclination_deg": 0.0142,
      "raan_deg": 61.6092,
      "arg_perigee_deg": 80.8292,
      "mean_anomaly_deg": 336.4433,
      "mean_motion_rev_day": 1.00268557
    }
  ]
}