{"fetched_at":"2026-03-29T02:12:04Z","count":15717,"tles":[{"name":"HULIANWAN GAOGUI-03 (H*)","line1":"1 61503U 24181A   26086.03204642  .00000000  00000+0  00000+0 0  9992","line2":"2 61503   0.0142  61.6092 0000512  80.8292 336.4433  1.00268557  6001","category":"Other"}]}